GPS BIII-1  (PRN 04)    
1 43873U 18109A   25014.73198986 -.00000024  00000+0  00000+0 0  9992
2 43873  55.3886 112.6657 0032752 194.6511 338.3270  2.00563587 44679
GPS BIII-2  (PRN 18)    
1 44506U 19056A   25014.36491211 -.00000103  00000+0  00000+0 0  9992
2 44506  55.8188 351.7260 0048653 194.7893 336.6271  2.00559391 39663
GPS BIII-3  (PRN 23)    
1 45854U 20041A   25014.45568799 -.00000057  00000+0  00000+0 0  9999
2 45854  56.2971  49.1440 0050624 198.7236 338.6167  2.00568983 33622
GPS BIII-4  (PRN 14)    
1 46826U 20078A   25014.48785862  .00000048  00000+0  00000+0 0  9993
2 46826  54.1057 231.8246 0052525 198.2488 334.7460  2.00559653 31090
GPS BIII-5  (PRN 11)    
1 48859U 21054A   25013.69242448 -.00000103  00000+0  00000+0 0  9999
2 48859  55.3485 353.3064 0019306 231.0114 274.2331  2.00572688 26335
GPS BIII-6  (PRN 28)    
1 55268U 23009A   25012.44501529  .00000028  00000+0  00000+0 0  9998
2 55268  55.0863 168.9634 0001996  70.7349 291.4402  2.00548884 14801
GPS BIII-7  (PRN 01)    
1 62339U 24242A   25012.57948199 -.00000100  00000+0  00000+0 0  9999
2 62339  54.9987 355.2557 0004522 284.7804 259.5241  2.00555034   816
